NUSAT-50 (NANCY ROMAN)  
1 60493U 24149AB  26068.80227738  .00012094  00000+0  42252-3 0  9994
2 60493  97.3817 150.7693 0002523 238.0469 122.0527 15.29713355 86930
STARLINK-35807          
1 66358U 25254L   26068.74655106  .00025894  00000+0  88350-3 0  9996
2 66358  53.1576 232.2430 0000905  70.7680 289.3418 15.30194012 18982
